{
  "norad_id": 57973,
  "name": "STARLINK-30502",
  "history": [
    {
      "epoch": "2026-04-18T08:30:41.843808Z",
      "apogee_km": 483.9328748818134,
      "perigee_km": 482.17064716043205,
      "latitude_deg": 1.8600642320175274e-05,
      "longitude_deg": 137.74792367872908,
      "height_km": 482.77584726152355,
      "semi_major_axis_km": 6861.188761021122,
      "eccentricity": 0.00012842,
      "inclination_deg": 43.0024,
      "raan_deg": 111.8971,
      "arg_perigee_deg": 273.4348,
      "mean_anomaly_deg": 86.6357,
      "mean_motion_rev_day": 15.2757911
    },
    {
      "epoch": "2026-04-19T06:28:53.001696Z",
      "apogee_km": 483.92578354119814,
      "perigee_km": 482.165204113282,
      "latitude_deg": -4.230702742025234e-05,
      "longitude_deg": 162.12920095267592,
      "height_km": 482.81914148976847,
      "semi_major_axis_km": 6861.182493827239,
      "eccentricity": 0.0001283,
      "inclination_deg": 43.0026,
      "raan_deg": 106.7272,
      "arg_perigee_deg": 270.2116,
      "mean_anomaly_deg": 89.8588,
      "mean_motion_rev_day": 15.27581203
    },
    {
      "epoch": "2026-04-20T06:01:14.164032Z",
      "apogee_km": 483.9835265238644,
      "perigee_km": 482.12825996553147,
      "latitude_deg": -9.703252489075632e-06,
      "longitude_deg": 162.5349367709237,
      "height_km": 482.90085379234347,
      "semi_major_axis_km": 6861.192893244698,
      "eccentricity": 0.0001352,
      "inclination_deg": 43.0028,
      "raan_deg": 101.1878,
      "arg_perigee_deg": 265.7963,
      "mean_anomaly_deg": 94.2734,
      "mean_motion_rev_day": 15.2757773
    },
    {
      "epoch": "2026-04-21T00:51:05.239584Z",
      "apogee_km": 483.78689844568817,
      "perigee_km": 482.24231599586983,
      "latitude_deg": 3.191162626614198e-05,
      "longitude_deg": -125.1321911097597,
      "height_km": 482.88039820240044,
      "semi_major_axis_km": 6861.151607220779,
      "eccentricity": 0.00011256,
      "inclination_deg": 43.0026,
      "raan_deg": 96.7568,
      "arg_perigee_deg": 263.3783,
      "mean_anomaly_deg": 96.6941,
      "mean_motion_rev_day": 15.27591518
    },
    {
      "epoch": "2026-04-22T08:14:14.403264Z",
      "apogee_km": 484.3560963066375,
      "perigee_km": 481.76983559147175,
      "latitude_deg": 2.062501768309426e-05,
      "longitude_deg": 115.41063925203713,
      "height_km": 482.41459443888243,
      "semi_major_axis_km": 6861.199965949054,
      "eccentricity": 0.00018847,
      "inclination_deg": 43.006,
      "raan_deg": 89.3768,
      "arg_perigee_deg": 289.2393,
      "mean_anomaly_deg": 70.8255,
      "mean_motion_rev_day": 15.27575368
    },
    {
      "epoch": "2026-04-23T07:46:35.277888Z",
      "apogee_km": 483.95127063116706,
      "perigee_km": 482.1639294378583,
      "latitude_deg": -1.3751435366146874e-05,
      "longitude_deg": 115.81470503299992,
      "height_km": 482.6616473332386,
      "semi_major_axis_km": 6861.194600034512,
      "eccentricity": 0.00013025,
      "inclination_deg": 43.0044,
      "raan_deg": 83.8346,
      "arg_perigee_deg": 281.1665,
      "mean_anomaly_deg": 78.904,
      "mean_motion_rev_day": 15.2757716
    },
    {
      "epoch": "2026-04-24T07:18:55.927008Z",
      "apogee_km": 483.8544596160091,
      "perigee_km": 482.27638305910114,
      "latitude_deg": 4.171240921395689e-05,
      "longitude_deg": 116.22260947613321,
      "height_km": 482.7719500985599,
      "semi_major_axis_km": 6861.202421337554,
      "eccentricity": 0.000115,
      "inclination_deg": 43.0042,
      "raan_deg": 78.2952,
      "arg_perigee_deg": 275.1212,
      "mean_anomaly_deg": 84.9509,
      "mean_motion_rev_day": 15.27574548
    },
    {
      "epoch": "2026-04-25T20:58:41.572128Z",
      "apogee_km": 483.7714774080887,
      "perigee_km": 482.3374883881643,
      "latitude_deg": -2.6169066453552953e-05,
      "longitude_deg": -99.12640285638868,
      "height_km": 482.894490933949,
      "semi_major_axis_km": 6861.191482898126,
      "eccentricity": 0.0001045,
      "inclination_deg": 43.0035,
      "raan_deg": 69.4332,
      "arg_perigee_deg": 264.9408,
      "mean_anomaly_deg": 95.1324,
      "mean_motion_rev_day": 15.27578201
    },
    {
      "epoch": "2026-04-26T04:49:28.588512Z",
      "apogee_km": 483.81880971305236,
      "perigee_km": 482.2927432157112,
      "latitude_deg": -2.3004428242585424e-05,
      "longitude_deg": 141.00915909428792,
      "height_km": 482.8649352033894,
      "semi_major_axis_km": 6861.1927764643815,
      "eccentricity": 0.00011121,
      "inclination_deg": 43.0036,
      "raan_deg": 67.5869,
      "arg_perigee_deg": 267.5737,
      "mean_anomaly_deg": 92.4987,
      "mean_motion_rev_day": 15.27577769
    },
    {
      "epoch": "2026-04-27T04:21:49.051008Z",
      "apogee_km": 483.7182387011526,
      "perigee_km": 482.3634305259302,
      "latitude_deg": -5.66555163688199e-06,
      "longitude_deg": 141.41920468392567,
      "height_km": 482.9285319999562,
      "semi_major_axis_km": 6861.177834613542,
      "eccentricity": 9.873e-05,
      "inclination_deg": 43.0047,
      "raan_deg": 62.0489,
      "arg_perigee_deg": 260.5816,
      "mean_anomaly_deg": 99.4924,
      "mean_motion_rev_day": 15.27582759
    },
    {
      "epoch": "2026-04-28T19:35:44.297088Z",
      "apogee_km": 483.9227780301435,
      "perigee_km": 482.23354685715003,
      "latitude_deg": 1.1031530537543378e-05,
      "longitude_deg": -97.90366977613645,
      "height_km": 482.9010680905775,
      "semi_major_axis_km": 6861.2151624436465,
      "eccentricity": 0.0001231,
      "inclination_deg": 43.0059,
      "raan_deg": 52.8174,
      "arg_perigee_deg": 266.8986,
      "mean_anomaly_deg": 93.1725,
      "mean_motion_rev_day": 15.27570293
    },
    {
      "epoch": "2026-04-29T19:08:05.143200Z",
      "apogee_km": 483.9630131327276,
      "perigee_km": 482.2079124267484,
      "latitude_deg": -1.6514744471719926e-05,
      "longitude_deg": -97.49567508246548,
      "height_km": 482.89894014009525,
      "semi_major_axis_km": 6861.222462779738,
      "eccentricity": 0.0001279,
      "inclination_deg": 43.005,
      "raan_deg": 47.279,
      "arg_perigee_deg": 267.6278,
      "mean_anomaly_deg": 92.4427,
      "mean_motion_rev_day": 15.27567855
    },
    {
      "epoch": "2026-04-30T04:33:01.367424Z",
      "apogee_km": 484.05072588420353,
      "perigee_km": 482.0327159988001,
      "latitude_deg": -3.506574649596345e-05,
      "longitude_deg": 118.66775181652989,
      "height_km": 482.8824981319671,
      "semi_major_axis_km": 6861.1787209415015,
      "eccentricity": 0.00014706,
      "inclination_deg": 43.0055,
      "raan_deg": 45.0634,
      "arg_perigee_deg": 266.3968,
      "mean_anomaly_deg": 93.6715,
      "mean_motion_rev_day": 15.27582463
    },
    {
      "epoch": "2026-05-02T02:03:33.010272Z",
      "apogee_km": 483.9058680732751,
      "perigee_km": 482.17273493951416,
      "latitude_deg": -3.263020505745021e-05,
      "longitude_deg": 143.4589277188652,
      "height_km": 482.7423137264533,
      "semi_major_axis_km": 6861.176301506394,
      "eccentricity": 0.0001263,
      "inclination_deg": 43.0057,
      "raan_deg": 34.3554,
      "arg_perigee_deg": 274.9133,
      "mean_anomaly_deg": 85.1574,
      "mean_motion_rev_day": 15.27583271
    }
  ]
}